GEOSCAN 3 (RS92S3)      
1 64893U 25155T   26165.52078580  .00016840  00000+0  49257-3 0  9991
2 64893  97.4532 135.3667 0006376 168.7857 191.3529 15.35317329 80442
INNOSAT 3 (RS92S0)      
1 64894U 25155U   26165.52537916  .00033243  00000+0  73712-3 0  9994
2 64894  97.4481 136.9578 0006065 157.7914 202.3598 15.43659917 80553
KNACKSAT-2              
1 67683U 98067XZ  26164.69872930  .00046958  00000+0  57858-3 0  9990
2 67683  51.6303 312.0209 0009611 199.6131 160.4494 15.59677165 19734
