OBJECT_NAME,OBJECT_ID,EPOCH,MEAN_MOTION,ECCENTRICITY,INCLINATION,RA_OF_ASC_NODE,ARG_OF_PERICENTER,MEAN_ANOMALY,EPHEMERIS_TYPE,CLASSIFICATION_TYPE,NORAD_CAT_ID,ELEMENT_SET_NO,REV_AT_EPOCH,BSTAR,MEAN_MOTION_DOT,MEAN_MOTION_DDOT
GEOSCAN 3 (RS92S3),2025-155T,2026-06-14T12:29:55.893120,15.35317329,.0006376,97.4532,135.3667,168.7857,191.3529,0,U,64893,999,8044,.49257E-3,.1684E-3,0
INNOSAT 3 (RS92S0),2025-155U,2026-06-14T12:36:32.759424,15.43659917,.0006065,97.4481,136.9578,157.7914,202.3598,0,U,64894,999,8055,.73712E-3,.33243E-3,0
KNACKSAT-2,1998-067XZ,2026-06-13T16:46:10.211520,15.59677165,.00096113,51.6303,312.0209,199.6131,160.4494,0,U,67683,999,1973,.57858406E-3,.46958E-3,0
